HAWK-A                  
1 43765U 18099H   26201.09407375  .00003914  00000+0  15705-3 0  9995
2 43765  97.3891 252.9053 0035273 166.8572 193.3593 15.25001549418115
HAWK-B                  
1 43794U 18099AN  26201.08949461  .00003298  00000+0  14077-3 0  9999
2 43794  97.3942 252.2461 0031869 184.7615 175.3324 15.23147151418046
HAWK-C                  
1 43799U 18099AT  26201.38817358  .00004860  00000+0  17352-3 0  9991
2 43799  97.3868 254.2731 0040826 165.5943 194.6471 15.28539634418980
HAWK-2C                 
1 47502U 21006CT  26201.07575980  .00003542  00000+0  10646-3 0  9992
2 47502  97.2260 244.7343 0008660  87.1093 273.1142 15.35024151304544
HAWK-2A                 
1 47505U 21006CW  26201.59941227  .00003760  00000+0  11278-3 0  9997
2 47505  97.2303 245.9448 0008214  89.0815 271.1369 15.35049179304627
HAWK-2B                 
1 47508U 21006CZ  26201.85320738  .00005114  00000+0  15187-3 0  9995
2 47508  97.2174 244.4728 0008744  86.7227 273.5018 15.35185099304663
HAWK-3B                 
1 48931U 21059BE  26201.12896549  .00028153  00000+0  21492-3 0  9996
2 48931  97.6637  41.0194 0004855 181.2561 178.8690 15.72164957283021
HAWK-3C                 
1 48948U 21059BX  26201.82877510  .00030658  00000+0  23341-3 0  9996
2 48948  97.6749  47.5312 0005265 178.9244 181.2031 15.72210741283135
HAWK-3A                 
1 48957U 21059CG  26201.12853685  .00027537  00000+0  21025-3 0  9995
2 48957  97.6701  43.9389 0005049 183.4307 176.6922 15.72164641283020
HAWK-5C                 
1 52754U 22057Y   26201.89433708  .00013388  00000+0  22058-3 0  9994
2 52754  97.6629   3.7701 0002388 318.0528  42.0541 15.52454650231571
HAWK-5B                 
1 52756U 22057AA  26201.89416666  .00013142  00000+0  21658-3 0  9993
2 52756  97.6639   2.1246 0003047 303.4308  56.6652 15.52450165231579
HAWK-5A                 
1 52757U 22057AB  26201.70059196  .00011764  00000+0  19411-3 0  9997
2 52757  97.6637   2.7481 0002943 311.2030  48.8967 15.52446178231546
HAWK-6B                 
1 55324U 23011A   26201.95170279  .00003129  00000+0  13769-3 0  9990
2 55324  40.4981 155.0908 0004596 269.6243  90.4040 15.23186358192990
HAWK-6C                 
1 55326U 23011C   26201.95106989  .00002985  00000+0  13170-3 0  9994
2 55326  40.4969 151.9297 0005097 264.2933  95.7295 15.23185777193005
HAWK-6A                 
1 55327U 23011D   26201.95110737  .00003066  00000+0  13507-3 0  9996
2 55327  40.4979 153.5573 0004774 261.3875  98.6394 15.23186278193005
HAWK-7A                 
1 56191U 23054P   26201.51924867  .00003230  00000+0  12214-3 0  9999
2 56191  97.2653  88.0088 0001005 294.4886  65.6248 15.27665267182116
